CTC2_L_00589007-03
1 10062U 23810UA  26075.70049769  .00000000  00000+0  00000-0 0  9994
2 10062  70.0000 180.0000 0000000   0.0000 144.0000  7.15312845    13
CTC2_L_00589007-04
1 10063U 22380RH  26075.70049769  .00000000  00000+0  00000-0 0  9996
2 10063  70.0000 180.0000 0000000   0.0000 180.0000  7.15312845    14
CTC2_L_00589007-05
1 10064U 25040TX  26075.70049769  .00000000  00000+0  00000-0 0  9993
2 10064  70.0000 180.0000 0000000   0.0000 216.0000  7.15312845    15
CTC2_L_00589007-06
1 10065U 25419CE  26075.70049769  .00000000  00000+0  00000-0 0  9994
2 10065  70.0000 180.0000 0000000   0.0000 252.0000  7.15312845    16
CTC2_L_00589007-07
1 10066U 24520NU  26075.70049769  .00000000  00000+0  00000-0 0  9997
2 10066  70.0000 180.0000 0000000   0.0000 288.0000  7.15312845    16
CTC2_L_00589007-08
1 10067U 22957L   26075.70049769  .00000000  00000+0  00000-0 0  9990
2 10067  70.0000 180.0000 0000000   0.0000 324.0000  7.15312845    18
CTC2_L_00589007-09
1 10068U 26130CL  26075.70049769  .00000000  00000+0  00000-0 0  9998
2 10068  70.0000 180.0000 0000000   0.0000   0.0000  7.15312845    10
CTC2_L_00589007-10
1 10069U 23810DN  26075.70049769  .00000000  00000+0  00000-0 0  9991
2 10069  70.0000 180.0000 0000000   0.0000  36.0000  7.15312845    10
CTC2_L_00589008-01
1 10070U 26545NJ  26075.70049769  .00000000  00000+0  00000-0 0  9991
2 10070  70.0000 210.0000 0000000   0.0000  84.0000  7.15312845    19
CTC2_L_00589008-02
1 10071U 23746AD  26075.70049769  .00000000  00000+0  00000-0 0  9992
2 10071  70.0000 210.0000 0000000   0.0000 120.0000  7.15312845    11
CTC2_L_00589008-03
1 10072U 24873GI  26075.70049769  .00000000  00000+0  00000-0 0  9995
2 10072  70.0000 210.0000 0000000   0.0000 156.0000  7.15312845    11
CTC2_L_00589008-04
1 10073U 23849CH  26075.70049769  .00000000  00000+0  00000-0 0  9998
2 10073  70.0000 210.0000 0000000   0.0000 192.0000  7.15312845    12
CTC2_L_00589008-05
1 10074U 24066WX  26075.70049769  .00000000  00000+0  00000-0 0  9991
2 10074  70.0000 210.0000 0000000   0.0000 228.0000  7.15312845    13
CTC2_L_00589008-06
1 10075U 24145SF  26075.70049769  .00000000  00000+0  00000-0 0  9990
2 10075  70.0000 210.0000 0000000   0.0000 264.0000  7.15312845    14
CTC2_L_00589008-07
1 10076U 26925OU  26075.70049769  .00000000  00000+0  00000-0 0  9999
2 10076  70.0000 210.0000 0000000   0.0000 300.0000  7.15312845    16
CTC2_L_00589008-08
1 10077U 25707EN  26075.70049769  .00000000  00000+0  00000-0 0  9997
2 10077  70.0000 210.0000 0000000   0.0000 336.0000  7.15312845    16
CTC2_L_00589008-09
1 10078U 24894DI  26075.70049769  .00000000  00000+0  00000-0 0  9994
2 10078  70.0000 210.0000 0000000   0.0000  12.0000  7.15312845    18
CTC2_L_00589008-10
1 10079U 26655UC  26075.70049769  .00000000  00000+0  00000-0 0  9992
2 10079  70.0000 210.0000 0000000   0.0000  48.0000  7.15312845    18
CTC2_L_00589009-01
1 10080U 26876SQ  26075.70049769  .00000000  00000+0  00000-0 0  9999
2 10080  70.0000 240.0000 0000000   0.0000  96.0000  7.15312845    16
CTC2_L_00589009-02
1 10081U 23098KY  26075.70049769  .00000000  00000+0  00000-0 0  9993
2 10081  70.0000 240.0000 0000000   0.0000 132.0000  7.15312845    18
CTC2_L_00589009-03
1 10082U 22431JJ  26075.70049769  .00000000  00000+0  00000-0 0  9994
2 10082  70.0000 240.0000 0000000   0.0000 168.0000  7.15312845    18
CTC2_L_00589009-04
1 10083U 22777UT  26075.70049769  .00000000  00000+0  00000-0 0  9998
2 10083  70.0000 240.0000 0000000   0.0000 204.0000  7.15312845    10
CTC2_L_00589009-05
1 10084U 24539VK  26075.70049769  .00000000  00000+0  00000-0 0  9997
2 10084  70.0000 240.0000 0000000   0.0000 240.0000  7.15312845    11
CTC2_L_00589009-06
1 10085U 26390DI  26075.70049769  .00000000  00000+0  00000-0 0  9995
2 10085  70.0000 240.0000 0000000   0.0000 276.0000  7.15312845    11
CTC2_L_00589009-07
1 10086U 25700ZW  26075.70049769  .00000000  00000+0  00000-0 0  9990
2 10086  70.0000 240.0000 0000000   0.0000 312.0000  7.15312845    13
CTC2_L_00589009-08
1 10087U 26910HG  26075.70049769  .00000000  00000+0  00000-0 0  9995
2 10087  70.0000 240.0000 0000000   0.0000 348.0000  7.15312845    13
CTC2_L_00589009-09
1 10088U 25623CS  26075.70049769  .00000000  00000+0  00000-0 0  9996
2 10088  70.0000 240.0000 0000000   0.0000  24.0000  7.15312845    15
CTC2_L_00589009-10
1 10089U 23289YJ  26075.70049769  .00000000  00000+0  00000-0 0  9993
2 10089  70.0000 240.0000 0000000   0.0000  60.0000  7.15312845    16
CTC2_L_00589010-01
1 10090U 25812UC  26075.70049769  .00000000  00000+0  00000-0 0  9999
2 10090  70.0000 270.0000 0000000   0.0000 108.0000  7.15312845    14
CTC2_L_00589010-02
1 10091U 26657UZ  26075.70049769  .00000000  00000+0  00000-0 0  9998
2 10091  70.0000 270.0000 0000000   0.0000 144.0000  7.15312845    15
CTC2_L_00589010-03
1 10092U 24312MC  26075.70049769  .00000000  00000+0  00000-0 0  9995
2 10092  70.0000 270.0000 0000000   0.0000 180.0000  7.15312845    16
CTC2_L_00589010-04
1 10093U 24902UK  26075.70049769  .00000000  00000+0  00000-0 0  9991
2 10093  70.0000 270.0000 0000000   0.0000 216.0000  7.15312845    17
CTC2_L_00589010-05
1 10094U 23134EP  26075.70049769  .00000000  00000+0  00000-0 0  9998
2 10094  70.0000 270.0000 0000000   0.0000 252.0000  7.15312845    18
CTC2_L_00589010-06
1 10095U 25962TL  26075.70049769  .00000000  00000+0  00000-0 0  9990
2 10095  70.0000 270.0000 0000000   0.0000 288.0000  7.15312845    18
CTC2_L_00589010-07
1 10096U 22110BC  26075.70049769  .00000000  00000+0  00000-0 0  9993
2 10096  70.0000 270.0000 0000000   0.0000 324.0000  7.15312845    10
CTC2_L_00589010-08
1 10097U 24743SY  26075.70049769  .00000000  00000+0  00000-0 0  9998
2 10097  70.0000 270.0000 0000000   0.0000   0.0000  7.15312845    12
CTC2_L_00589010-09
1 10098U 24259JW  26075.70049769  .00000000  00000+0  00000-0 0  9991
2 10098  70.0000 270.0000 0000000   0.0000  36.0000  7.15312845    12
CTC2_L_00589010-10
1 10099U 23580BD  26075.70049769  .00000000  00000+0  00000-0 0  9998
2 10099  70.0000 270.0000 0000000   0.0000  72.0000  7.15312845    13
CTC2_L_00589011-01
1 10100U 24203DD  26075.70049769  .00000000  00000+0  00000-0 0  9994
2 10100  70.0000 300.0000 0000000   0.0000 120.0000  7.15312845    14
CTC2_L_00589011-02
1 10101U 26814VK  26075.70049769  .00000000  00000+0  00000-0 0  9995
2 10101  70.0000 300.0000 0000000   0.0000 156.0000  7.15312845    14
CTC2_L_00589011-03
1 10102U 22463DP  26075.70049769  .00000000  00000+0  00000-0 0  9992
2 10102  70.0000 300.0000 0000000   0.0000 192.0000  7.15312845    15
CTC2_L_00589011-04
1 10103U 25284RW  26075.70049769  .00000000  00000+0  00000-0 0  9997
2 10103  70.0000 300.0000 0000000   0.0000 228.0000  7.15312845    16
CTC2_L_00589011-05
1 10104U 26258AI  26075.70049769  .00000000  00000+0  00000-0 0  9990
2 10104  70.0000 300.0000 0000000   0.0000 264.0000  7.15312845    17
CTC2_L_00589011-06
1 10105U 24673ZF  26075.70049769  .00000000  00000+0  00000-0 0  9990
2 10105  70.0000 300.0000 0000000   0.0000 300.0000  7.15312845    19
CTC2_L_00589011-07
1 10106U 24971XL  26075.70049769  .00000000  00000+0  00000-0 0  9992
2 10106  70.0000 300.0000 0000000   0.0000 336.0000  7.15312845    19
CTC2_L_00589011-08
1 10107U 26256JY  26075.70049769  .00000000  00000+0  00000-0 0  9991
2 10107  70.0000 300.0000 0000000   0.0000  12.0000  7.15312845    11
CTC2_L_00589011-09
1 10108U 25320PK  26075.70049769  .00000000  00000+0  00000-0 0  9993
2 10108  70.0000 300.0000 0000000   0.0000  48.0000  7.15312845    11
CTC2_L_00589011-10
1 10109U 23160FX  26075.70049769  .00000000  00000+0  00000-0 0  9994
2 10109  70.0000 300.0000 0000000   0.0000  84.0000  7.15312845    12
CTC2_L_00589012-01
1 10110U 22721QV  26075.70049769  .00000000  00000+0  00000-0 0  9998
2 10110  70.0000 330.0000 0000000   0.0000 132.0000  7.15312845    11
CTC2_L_00589012-02
1 10111U 26750XT  26075.70049769  .00000000  00000+0  00000-0 0  9995
2 10111  70.0000 330.0000 0000000   0.0000 168.0000  7.15312845    11
CTC2_L_00589012-03
1 10112U 26087MT  26075.70049769  .00000000  00000+0  00000-0 0  9999
2 10112  70.0000 330.0000 0000000   0.0000 204.0000  7.15312845    13
CTC2_L_00589012-04
1 10113U 24461FX  26075.70049769  .00000000  00000+0  00000-0 0  9994
2 10113  70.0000 330.0000 0000000   0.0000 240.0000  7.15312845    14
CTC2_L_00589012-05
1 10114U 24957BZ  26075.70049769  .00000000  00000+0  00000-0 0  9995
2 10114  70.0000 330.0000 0000000   0.0000 276.0000  7.15312845    14
CTC2_L_00589012-06
1 10115U 23818AX  26075.70049769  .00000000  00000+0  00000-0 0  9991
2 10115  70.0000 330.0000 0000000   0.0000 312.0000  7.15312845    16
CTC2_L_00589012-07
1 10116U 22973DN  26075.70049769  .00000000  00000+0  00000-0 0  9993
2 10116  70.0000 330.0000 0000000   0.0000 348.0000  7.15312845    16
CTC2_L_00589012-08
1 10117U 23557JN  26075.70049769  .00000000  00000+0  00000-0 0  9993
2 10117  70.0000 330.0000 0000000   0.0000  24.0000  7.15312845    18
CTC2_L_00589012-09
1 10118U 26779VN  26075.70049769  .00000000  00000+0  00000-0 0  9993
2 10118  70.0000 330.0000 0000000   0.0000  60.0000  7.15312845    19
CTC2_L_00589012-10
1 10119U 23078I   26075.70049769  .00000000  00000+0  00000-0 0  9993
2 10119  70.0000 330.0000 0000000   0.0000  96.0000  7.15312845    19
